[{"OBJECT_NAME":"HIBARI","OBJECT_ID":"2021-102F","EPOCH":"2026-03-09T16:55:51.090816","MEAN_MOTION":15.29554512,"ECCENTRICITY":0.00120742,"INCLINATION":97.3381,"RA_OF_ASC_NODE":115.826,"ARG_OF_PERICENTER":186.5211,"MEAN_ANOMALY":173.5875,"EPHEMERIS_TYPE":0,"CLASSIFICATION_TYPE":"U","NORAD_CAT_ID":49400,"ELEMENT_SET_NO":999,"REV_AT_EPOCH":23897,"BSTAR":0.00042758039,"MEAN_MOTION_DOT":0.00012206,"MEAN_MOTION_DDOT":0},{"OBJECT_NAME":"STARLINK-32369","OBJECT_ID":"2024-154Q","EPOCH":"2026-03-09T20:35:58.333056","MEAN_MOTION":15.30196957,"ECCENTRICITY":9.435e-5,"INCLINATION":53.1609,"RA_OF_ASC_NODE":282.8579,"ARG_OF_PERICENTER":114.3494,"MEAN_ANOMALY":245.7606,"EPHEMERIS_TYPE":0,"CLASSIFICATION_TYPE":"U","NORAD_CAT_ID":60917,"ELEMENT_SET_NO":999,"REV_AT_EPOCH":8636,"BSTAR":5.3727902e-5,"MEAN_MOTION_DOT":1.232e-5,"MEAN_MOTION_DDOT":0}]
